NORAD_CAT_ID,OBJECT_NAME,OBJECT_TYPE,EPOCH,MEAN_MOTION,ECCENTRICITY,INCLINATION,RA_OF_ASC_NODE,ARG_OF_PERICENTER,MEAN_ANOMALY,BSTAR,MEAN_MOTION_DOT,MEAN_MOTION_DDOT,TLE_LINE0,TLE_LINE1,TLE_LINE2,SEMIMAJOR_AXIS,PERIOD,APOGEE,PERIGEE,DECAYED
56798.0,STARLINK-6068,PAYLOAD,2024-03-29 00:33:18,14.98327691,0.0002932,69.9991,316.255,269.17,90.9123,6.276e-05,6.56e-06,0.0,0 STARLINK-6068,1 56798U 23078AH  24089.02312963  .00000656  00000-0  62760-4 0  9996,2 56798  69.9991 316.2550 0002932 269.1700  90.9123 14.98327691 46984,6950.2,96.107,574.103,570.027,0.0
56798.0,STARLINK-6068,PAYLOAD,2024-03-29 08:33:58,14.98328702,0.0002917,69.9993,315.4126,272.3109,87.7716,2.541e-05,2.1e-06,0.0,0 STARLINK-6068,1 56798U 23078AH  24089.35693015  .00000210  00000-0  25410-4 0  9999,2 56798  69.9993 315.4126 0002917 272.3109  87.7716 14.98328702 47446,6950.197,96.107,574.089,570.035,0.0
56798.0,STARLINK-6068,PAYLOAD,2024-03-29 22:59:11,14.98332249,0.0002996,69.9993,313.8976,269.2054,90.8762,-7.1476e-05,-9.46e-06,0.0,0 STARLINK-6068,1 56798U 23078AH  24089.95776928 -.00000946  00000-0 -71476-4 0  9991,2 56798  69.9993 313.8976 0002996 269.2054  90.8762 14.98332249 47539,6950.186,96.107,574.133,569.969,0.0
56798.0,STARLINK-6068,PAYLOAD,2024-03-30 00:35:19,14.9833307,0.0002986,69.9993,313.7293,269.254,90.8277,-6.0898e-05,-8.2e-06,0.0,0 STARLINK-6068,1 56798U 23078AH  24090.02452836 -.00000820  00000-0 -60898-4 0  9997,2 56798  69.9993 313.7293 0002986 269.2540  90.8277 14.98333070 47139,6950.183,96.107,574.124,569.973,0.0
56798.0,STARLINK-6068,PAYLOAD,2024-03-30 08:35:59,14.98331378,0.0002933,69.9998,312.8872,269.3846,90.6977,-5.5252e-05,-7.52e-06,0.0,0 STARLINK-6068,1 56798U 23078AH  24090.35832876 -.00000752  00000-0 -55252-4 0  9991,2 56798  69.9998 312.8872 0002933 269.3846  90.6977 14.98331378 47593,6950.189,96.107,574.092,570.015,0.0
56798.0,STARLINK-6068,PAYLOAD,2024-03-30 23:01:12,14.98329848,0.0003014,69.9996,311.3731,270.7327,89.3487,-1.5414e-05,-2.77e-06,0.0,0 STARLINK-6068,1 56798U 23078AH  24090.95916847 -.00000277  00000-0 -15414-4 0  9996,2 56798  69.9996 311.3731 0003014 270.7327  89.3487 14.98329848 47680,6950.193,96.107,574.153,569.964,0.0
56798.0,STARLINK-6068,PAYLOAD,2024-03-31 00:37:20,14.98330132,0.0003011,69.9996,311.2048,270.7588,89.3226,-1.1481e-05,-2.3e-06,0.0,0 STARLINK-6068,1 56798U 23078AH  24091.02592818 -.00000230  00000-0 -11481-4 0  9992,2 56798  69.9996 311.2048 0003011 270.7588  89.3226 14.98330132 47281,6950.192,96.107,574.15,569.965,0.0
56798.0,STARLINK-6068,PAYLOAD,2024-03-31 21:27:04,14.98334859,0.0003092,69.9992,309.0165,270.9555,89.125,6.0452e-05,6.28e-06,0.0,0 STARLINK-6068,1 56798U 23078AH  24091.89380157  .00000628  00000-0  60452-4 0  9999,2 56798  69.9992 309.0165 0003092 270.9555  89.1250 14.98334859 47822,6950.178,96.107,574.192,569.894,0.0
56798.0,STARLINK-6068,PAYLOAD,2024-04-01 00:39:20,14.9833594,0.0003055,69.9991,308.6797,270.8942,89.1867,7.4688e-05,7.98e-06,0.0,0 STARLINK-6068,1 56798U 23078AH  24092.02732000  .00000798  00000-0  74688-4 0  9997,2 56798  69.9991 308.6797 0003055 270.8942  89.1867 14.98335940 47438,6950.175,96.107,574.163,569.916,0.0
56798.0,STARLINK-6068,PAYLOAD,2024-04-01 13:28:25,14.98323608,0.0002906,69.9993,307.3331,270.8287,89.2539,-6.4534e-05,-8.63e-06,0.0,0 STARLINK-6068,1 56798U 23078AH  24092.56141164 -.00000863  00000-0 -64534-4 0  9995,2 56798  69.9993 307.3331 0002906 270.8287  89.2539 14.98323608 47510,6950.213,96.107,574.097,570.058,0.0
56798.0,STARLINK-6068,PAYLOAD,2024-04-02 07:05:54,14.98327763,0.0002874,69.9991,305.4823,267.6774,92.4055,-2.5466e-05,-3.97e-06,0.0,0 STARLINK-6068,1 56798U 23078AH  24093.29576957 -.00000397  00000-0 -25466-4 0  9991,2 56798  69.9991 305.4823 0002874 267.6774  92.4055 14.98327763 48035,6950.2,96.107,574.062,570.067,0.0
56798.0,STARLINK-6068,PAYLOAD,2024-04-02 19:54:58,14.98335015,0.0002873,69.9987,304.135,268.5159,91.5671,-1.6044e-05,-2.84e-06,0.0,0 STARLINK-6068,1 56798U 23078AH  24093.82984374 -.00000284  00000-0 -16044-4 0  9993,2 56798  69.9987 304.1350 0002873 268.5159  91.5671 14.98335015 47703,6950.177,96.107,574.039,570.046,0.0
56798.0,STARLINK-6068,PAYLOAD,2024-04-02 21:31:06,14.98335463,0.0002859,69.9987,303.9666,268.9697,91.1134,-9.0554e-06,-2.01e-06,0.0,0 STARLINK-6068,1 56798U 23078AH  24093.89660312 -.00000201  00000-0 -90554-5 0  9991,2 56798  69.9987 303.9666 0002859 268.9697  91.1134 14.98335463 48129,6950.176,96.107,574.028,570.054,0.0
56798.0,STARLINK-6068,PAYLOAD,2024-04-03 13:32:27,14.98324961,0.0002924,69.9982,302.2828,270.3962,89.6862,5.648e-05,5.81e-06,0.0,0 STARLINK-6068,1 56798U 23078AH  24094.56420692  .00000581  00000-0  56480-4 0  9999,2 56798  69.9982 302.2828 0002924 270.3962  89.6862 14.98324961 48223,6950.208,96.107,574.106,570.041,0.0
56798.0,STARLINK-6068,PAYLOAD,2024-04-03 19:56:59,14.98325818,0.0002961,69.9981,301.6093,270.6012,89.4807,3.4845e-05,3.23e-06,0.0,0 STARLINK-6068,1 56798U 23078AH  24094.83124765  .00000323  00000-0  34845-4 0  9996,2 56798  69.9981 301.6093 0002961 270.6012  89.4807 14.98325818 47856,6950.206,96.107,574.129,570.013,0.0
56798.0,STARLINK-6068,PAYLOAD,2024-04-04 15:10:36,14.98331834,0.0002934,69.9979,299.5893,271.2173,88.865,-8.6548e-06,-1.96e-06,0.0,0 STARLINK-6068,1 56798U 23078AH  24095.63236540 -.00000196  00000-0 -86548-5 0  9998,2 56798  69.9979 299.5893 0002934 271.2173  88.8650 14.98331834 48384,6950.187,96.107,574.091,570.013,0.0
56798.0,STARLINK-6068,PAYLOAD,2024-04-04 19:59:00,14.98333903,0.0002958,69.9979,299.084,270.894,89.188,-9.0106e-06,-2.01e-06,0.0,0 STARLINK-6068,1 56798U 23078AH  24095.83264367 -.00000201  00000-0 -90106-5 0  9990,2 56798  69.9979 299.0840 0002958 270.8940  89.1880 14.98333903 48001,6950.181,96.107,574.102,569.99,0.0
56798.0,STARLINK-6068,PAYLOAD,2024-04-04 21:35:08,14.98333442,0.0002967,69.9979,298.9156,270.817,89.2649,-1.3717e-05,-2.57e-06,0.0,0 STARLINK-6068,1 56798U 23078AH  24095.89940391 -.00000257  00000-0 -13717-4 0  9997,2 56798  69.9979 298.9156 0002967 270.8170  89.2649 14.98333442 48422,6950.182,96.107,574.109,569.985,0.0
56798.0,STARLINK-6068,PAYLOAD,2024-04-05 13:36:29,14.983303,0.000298,69.9978,297.2318,270.5875,89.4943,3.6354e-05,3.41e-06,0.0,0 STARLINK-6068,1 56798U 23078AH  24096.56700313  .00000341  00000-0  36354-4 0  9994,2 56798  69.9978 297.2318 0002980 270.5875  89.4943 14.98330300 48527,6950.192,96.107,574.128,569.986,0.0
56798.0,STARLINK-6068,PAYLOAD,2024-04-05 20:01:01,14.98331069,0.0002983,69.9978,296.5583,270.3206,89.7612,1.9237e-05,1.37e-06,0.0,0 STARLINK-6068,1 56798U 23078AH  24096.83404289  .00000137  00000-0  19237-4 0  9991,2 56798  69.9978 296.5583 0002983 270.3206  89.7612 14.98331069 48150,6950.19,96.107,574.128,569.981,0.0
56798.0,STARLINK-6068,PAYLOAD,2024-04-05 21:37:09,14.98332051,0.0002977,69.9978,296.3899,270.3559,89.7258,2.969e-05,2.61e-06,0.0,0 STARLINK-6068,1 56798U 23078AH  24096.90080186  .00000261  00000-0  29690-4 0  9997,2 56798  69.9978 296.3899 0002977 270.3559  89.7258 14.98332051 48576,6950.187,96.107,574.121,569.982,0.0
56798.0,STARLINK-6068,PAYLOAD,2024-04-05 23:13:17,14.98332502,0.0002977,69.9978,296.2216,270.3997,89.6821,3.3912e-05,3.12e-06,0.0,0 STARLINK-6068,1 56798U 23078AH  24096.96756133  .00000312  00000-0  33912-4 0  9994,2 56798  69.9978 296.2216 0002977 270.3997  89.6821 14.98332502 48581,6950.185,96.107,574.119,569.981,0.0
56798.0,STARLINK-6068,PAYLOAD,2024-04-06 20:03:02,14.98330875,0.0002952,69.9978,294.0331,270.383,89.6991,-2.1633e-05,-3.51e-06,0.0,0 STARLINK-6068,1 56798U 23078AH  24097.83544279 -.00000351  00000-0 -21633-4 0  9999,2 56798  69.9978 294.0331 0002952 270.3830  89.6991 14.98330875 48303,6950.19,96.107,574.107,570.003,0.0
56798.0,STARLINK-6068,PAYLOAD,2024-04-06 21:39:10,14.98330338,0.0002968,69.9978,293.8648,270.5991,89.4828,-2.7967e-05,-4.27e-06,0.0,0 STARLINK-6068,1 56798U 23078AH  24097.90220327 -.00000427  00000-0 -27967-4 0  9992,2 56798  69.9978 293.8648 0002968 270.5991  89.4828 14.98330338 48725,6950.192,96.107,574.12,569.994,0.0
56798.0,STARLINK-6068,PAYLOAD,2024-04-07 12:04:23,14.98328671,0.0002896,69.998,292.3498,271.2889,88.7939,-4.4696e-05,-6.26e-06,0.0,0 STARLINK-6068,1 56798U 23078AH  24098.50304476 -.00000626  00000-0 -44696-4 0  9996,2 56798  69.9980 292.3498 0002896 271.2889  88.7939 14.98328671 48811,6950.197,96.107,574.075,570.049,0.0
56798.0,STARLINK-6068,PAYLOAD,2024-04-07 21:41:11,14.98325305,0.000286,69.9981,291.3403,268.3365,91.7467,-6.5002e-05,-8.68e-06,0.0,0 STARLINK-6068,1 56798U 23078AH  24098.90360803 -.00000868  00000-0 -65002-4 0  9998,2 56798  69.9981 291.3403 0002860 268.3365  91.7467 14.98325305 48871,6950.207,96.107,574.06,570.085,0.0
56798.0,STARLINK-6068,PAYLOAD,2024-04-07 23:17:19,14.98325409,0.0002857,69.9981,291.172,268.3722,91.711,-6.2405e-05,-8.37e-06,0.0,0 STARLINK-6068,1 56798U 23078AH  24098.97036807 -.00000837  00000-0 -62405-4 0  9999,2 56798  69.9981 291.1720 0002857 268.3722  91.7110 14.98325409 48470,6950.207,96.107,574.058,570.086,0.0
56798.0,STARLINK-6068,PAYLOAD,2024-04-08 05:41:51,14.98328097,0.0002857,69.9982,290.4987,268.2502,91.833,-2.7899e-05,-4.26e-06,0.0,0 STARLINK-6068,1 56798U 23078AH  24099.23740587 -.00000426  00000-0 -27899-4 0  9998,2 56798  69.9982 290.4987 0002857 268.2502  91.8330 14.98328097 48924,6950.199,96.107,574.049,570.078,0.0
56798.0,STARLINK-6068,PAYLOAD,2024-04-08 18:30:55,14.9833178,0.000295,69.9983,289.1517,268.8942,91.1879,3.9977e-05,3.84e-06,0.0,0 STARLINK-6068,1 56798U 23078AH  24099.77148129  .00000384  00000-0  39977-4 0  9992,2 56798  69.9983 289.1517 0002950 268.8942  91.1879 14.98331780 48594,6950.187,96.107,574.103,570.002,0.0
56798.0,STARLINK-6068,PAYLOAD,2024-04-08 21:43:12,14.98331555,0.000296,69.9983,288.815,268.7518,91.3302,3.5542e-05,3.31e-06,0.0,0 STARLINK-6068,1 56798U 23078AH  24099.90500141  .00000331  00000-0  35542-4 0  9999,2 56798  69.9983 288.8150 0002960 268.7518  91.3302 14.98331555 49024,6950.188,96.107,574.11,569.996,0.0
